STARLINK-33783          
1 63712U 25087R   26068.73441662  .00017552  00000+0  60334-3 0  9994
2 63712  53.1606 219.5464 0000986  98.3215 261.7898 15.30199600 49204
KUIPER-00208            
1 67775U 26030M   26068.67231509  .00043852  00000+0  13883-2 0  9994
2 67775  51.8846 219.6993 0015525  57.3146 302.9333 15.32208734  5080
